{
  "type": "FeatureCollection",
  "features": [
    {
      "type": "Feature",
      "properties": {
        "norad_id": 31152,
        "name": "FENGYUN 1C DEB",
        "group": "fengyun-1c-debris",
        "lat": -79.01570749995159,
        "lon": 18.557675062249544,
        "alt_km": 838.6074875287677,
        "timestamp": "2025-12-08T03:50:07.277675+00:00",
        "meta_object_name": "FENGYUN 1C DEB",
        "meta_object_id": "1999-025BHE",
        "meta_epoch": "2025-12-07T04:51:33.184224",
        "meta_mean_motion": 14.35842079,
        "meta_eccentricity": 0.01304279,
        "meta_inclination": 98.4137,
        "meta_ra_of_asc_node": 327.934,
        "meta_arg_of_pericenter": 49.7714,
        "meta_mean_anomaly": 322.8179,
        "meta_ephemeris_type": 0,
        "meta_classification_type": "U",
        "meta_norad_cat_id": 31152,
        "meta_element_set_no": 999,
        "meta_rev_at_epoch": 97969,
        "meta_bstar": 0.0001940219,
        "meta_mean_motion_dot": 5.74e-06,
        "meta_mean_motion_ddot": 0,
        "tle_line1": "1 31152U 99025BHE 25341.20246741  .00000574  00000+0  19402-3 0  9992",
        "tle_line2": "2 31152  98.4137 327.9340 0130427  49.7714 322.8179 14.35842079979698"
      },
      "geometry": {
        "type": "Point",
        "coordinates": [
          18.557675062249544,
          -79.01570749995159
        ]
      }
    },
    {
      "type": "Feature",
      "properties": {
        "norad_id": 31155,
        "name": "FENGYUN 1C DEB",
        "group": "fengyun-1c-debris",
        "lat": -77.06843118774161,
        "lon": 94.98860387016781,
        "alt_km": 879.4456276089595,
        "timestamp": "2025-12-08T03:50:07.277685+00:00",
        "meta_object_name": "FENGYUN 1C DEB",
        "meta_object_id": "1999-025BHH",
        "meta_epoch": "2025-12-05T21:39:03.400416",
        "meta_mean_motion": 14.08284808,
        "meta_eccentricity": 0.00890747,
        "meta_inclination": 99.0425,
        "meta_ra_of_asc_node": 48.8151,
        "meta_arg_of_pericenter": 22.3069,
        "meta_mean_anomaly": 338.1937,
        "meta_ephemeris_type": 0,
        "meta_classification_type": "U",
        "meta_norad_cat_id": 31155,
        "meta_element_set_no": 999,
        "meta_rev_at_epoch": 95491,
        "meta_bstar": 0.0020315981,
        "meta_mean_motion_dot": 3.558e-05,
        "meta_mean_motion_ddot": 0,
        "tle_line1": "1 31155U 99025BHH 25339.90212269  .00003558  00000+0  20316-2 0  9997",
        "tle_line2": "2 31155  99.0425  48.8151 0089074  22.3069 338.1937 14.08284808954918"
      },
      "geometry": {
        "type": "Point",
        "coordinates": [
          94.98860387016781,
          -77.06843118774161
        ]
      }
    },
    {
      "type": "Feature",
      "properties": {
        "norad_id": 31157,
        "name": "FENGYUN 1C DEB",
        "group": "fengyun-1c-debris",
        "lat": -13.598413213220544,
        "lon": -32.08695889415234,
        "alt_km": 749.40877797742,
        "timestamp": "2025-12-08T03:50:07.277695+00:00",
        "meta_object_name": "FENGYUN 1C DEB",
        "meta_object_id": "1999-025BHK",
        "meta_epoch": "2025-12-07T04:15:57.074688",
        "meta_mean_motion": 14.22549105,
        "meta_eccentricity": 0.0100449,
        "meta_inclination": 98.4774,
        "meta_ra_of_asc_node": 324.9006,
        "meta_arg_of_pericenter": 342.8267,
        "meta_mean_anomaly": 16.9521,
        "meta_ephemeris_type": 0,
        "meta_classification_type": "U",
        "meta_norad_cat_id": 31157,
        "meta_element_set_no": 999,
        "meta_rev_at_epoch": 96904,
        "meta_bstar": 0.00056222965,
        "meta_mean_motion_dot": 1.279e-05,
        "meta_mean_motion_ddot": 0,
        "tle_line1": "1 31157U 99025BHK 25341.17774392  .00001279  00000+0  56223-3 0  9996",
        "tle_line2": "2 31157  98.4774 324.9006 0100449 342.8267  16.9521 14.22549105969047"
      },
      "geometry": {
        "type": "Point",
        "coordinates": [
          -32.08695889415234,
          -13.598413213220544
        ]
      }
    },
    {
      "type": "Feature",
      "properties": {
        "norad_id": 31158,
        "name": "FENGYUN 1C DEB",
        "group": "fengyun-1c-debris",
        "lat": -19.506701267055128,
        "lon": 63.89094467588588,
        "alt_km": 773.6188037334341,
        "timestamp": "2025-12-08T03:50:07.277705+00:00",
        "meta_object_name": "FENGYUN 1C DEB",
        "meta_object_id": "1999-025BHL",
        "meta_epoch": "2025-12-01T22:47:41.317728",
        "meta_mean_motion": 14.33065926,
        "meta_eccentricity": 0.00482848,
        "meta_inclination": 98.7835,
        "meta_ra_of_asc_node": 54.4553,
        "meta_arg_of_pericenter": 67.2099,
        "meta_mean_anomaly": 293.4175,
        "meta_ephemeris_type": 0,
        "meta_classification_type": "U",
        "meta_norad_cat_id": 31158,
        "meta_element_set_no": 999,
        "meta_rev_at_epoch": 64325,
        "meta_bstar": 0.0019469313,
        "meta_mean_motion_dot": 5.364e-05,
        "meta_mean_motion_ddot": 0,
        "tle_line1": "1 31158U 99025BHL 25335.94978377  .00005364  00000+0  19469-2 0  9993",
        "tle_line2": "2 31158  98.7835  54.4553 0048284  67.2099 293.4175 14.33065926643255"
      },
      "geometry": {
        "type": "Point",
        "coordinates": [
          63.89094467588588,
          -19.506701267055128
        ]
      }
    },
    {
      "type": "Feature",
      "properties": {
        "norad_id": 31159,
        "name": "FENGYUN 1C DEB",
        "group": "fengyun-1c-debris",
        "lat": -21.068354756900735,
        "lon": 118.45748864288053,
        "alt_km": 537.2638377738804,
        "timestamp": "2025-12-08T03:50:07.277715+00:00",
        "meta_object_name": "FENGYUN 1C DEB",
        "meta_object_id": "1999-025BHM",
        "meta_epoch": "2025-12-07T03:32:01.799520",
        "meta_mean_motion": 15.37177071,
        "meta_eccentricity": 0.01157472,
        "meta_inclination": 97.7995,
        "meta_ra_of_asc_node": 300.4097,
        "meta_arg_of_pericenter": 33.2484,
        "meta_mean_anomaly": 327.5962,
        "meta_ephemeris_type": 0,
        "meta_classification_type": "U",
        "meta_norad_cat_id": 31159,
        "meta_element_set_no": 999,
        "meta_rev_at_epoch": 99467,
        "meta_bstar": 0.0020820653,
        "meta_mean_motion_dot": 0.00096035,
        "meta_mean_motion_ddot": 0,
        "tle_line1": "1 31159U 99025BHM 25341.14724305  .00096035  00000+0  20821-2 0  9992",
        "tle_line2": "2 31159  97.7995 300.4097 0115747  33.2484 327.5962 15.37177071994677"
      },
      "geometry": {
        "type": "Point",
        "coordinates": [
          118.45748864288053,
          -21.068354756900735
        ]
      }
    },
    {
      "type": "Feature",
      "properties": {
        "norad_id": 31160,
        "name": "FENGYUN 1C DEB",
        "group": "fengyun-1c-debris",
        "lat": -77.87799088747767,
        "lon": 86.63819280208564,
        "alt_km": 861.441191320544,
        "timestamp": "2025-12-08T03:50:07.277725+00:00",
        "meta_object_name": "FENGYUN 1C DEB",
        "meta_object_id": "1999-025BHN",
        "meta_epoch": "2025-12-06T21:20:26.592288",
        "meta_mean_motion": 13.9959049,
        "meta_eccentricity": 0.00571867,
        "meta_inclination": 99.0861,
        "meta_ra_of_asc_node": 37.2137,
        "meta_arg_of_pericenter": 272.3658,
        "meta_mean_anomaly": 87.096,
        "meta_ephemeris_type": 0,
        "meta_classification_type": "U",
        "meta_norad_cat_id": 31160,
        "meta_element_set_no": 999,
        "meta_rev_at_epoch": 69517,
        "meta_bstar": 0.00023458923,
        "meta_mean_motion_dot": 3.02e-06,
        "meta_mean_motion_ddot": 0,
        "tle_line1": "1 31160U 99025BHN 25340.88919667  .00000302  00000+0  23459-3 0  9994",
        "tle_line2": "2 31160  99.0861  37.2137 0057186 272.3658  87.0960 13.99590490695176"
      },
      "geometry": {
        "type": "Point",
        "coordinates": [
          86.63819280208564,
          -77.87799088747767
        ]
      }
    },
    {
      "type": "Feature",
      "properties": {
        "norad_id": 31161,
        "name": "FENGYUN 1C DEB",
        "group": "fengyun-1c-debris",
        "lat": 15.709057891105918,
        "lon": -173.64232785712662,
        "alt_km": 909.4844984004767,
        "timestamp": "2025-12-08T03:50:07.277735+00:00",
        "meta_object_name": "FENGYUN 1C DEB",
        "meta_object_id": "1999-025BHP",
        "meta_epoch": "2025-12-06T20:23:22.110144",
        "meta_mean_motion": 14.09240264,
        "meta_eccentricity": 0.0068586,
        "meta_inclination": 98.7491,
        "meta_ra_of_asc_node": 2.6028,
        "meta_arg_of_pericenter": 6.8769,
        "meta_mean_anomaly": 353.3326,
        "meta_ephemeris_type": 0,
        "meta_classification_type": "U",
        "meta_norad_cat_id": 31161,
        "meta_element_set_no": 999,
        "meta_rev_at_epoch": 96019,
        "meta_bstar": 0.00060286597,
        "meta_mean_motion_dot": 1.029e-05,
        "meta_mean_motion_ddot": 0,
        "tle_line1": "1 31161U 99025BHP 25340.84956146  .00001029  00000+0  60287-3 0  9991",
        "tle_line2": "2 31161  98.7491   2.6028 0068586   6.8769 353.3326 14.09240264960191"
      },
      "geometry": {
        "type": "Point",
        "coordinates": [
          -173.64232785712662,
          15.709057891105918
        ]
      }
    }
  ]
}